{"type": "FeatureCollection", "features": [ {"type": "Feature", "properties": {"norad_id": 35650, "name": "COSMOS 2251 DEB", "group": "cosmos-2251-debris", "lat": 40.81234324629229, "lon": -171.72042863480345, "alt_km": 610.4587874325389, "timestamp": "2025-12-10T20:49:52.948982+00:00", "meta": {"OBJECT_NAME": "COSMOS 2251 DEB", "OBJECT_ID": "1993-036ANR", "EPOCH": "2025-12-10T04:17:14.504640", "MEAN_MOTION": 14.83512413, "ECCENTRICITY": 0.00145256, "INCLINATION": 74.0455, "RA_OF_ASC_NODE": 23.9462, "ARG_OF_PERICENTER": 72.7174, "MEAN_ANOMALY": 344.2504, "EPHEMERIS_TYPE": 0, "CLASSIFICATION_TYPE": "U", "NORAD_CAT_ID": 35650, "ELEMENT_SET_NO": 999, "REV_AT_EPOCH": 87596, "BSTAR": 0.0022559243, "MEAN_MOTION_DOT": 0.00018615, "MEAN_MOTION_DDOT": 0}, "tle": {"line1": "1 35650U 93036ANR 25344.17864010  .00018615  00000+0  22559-2 0  9990", "line2": "2 35650  74.0455  23.9462 0014525  72.7174 344.2504 14.83512413875966"}}, "geometry": {"type": "Point", "coordinates": [-171.72042863480345, 40.81234324629229]}}, {"type": "Feature", "properties": {"norad_id": 35660, "name": "COSMOS 2251 DEB", "group": "cosmos-2251-debris", "lat": -55.87307691598895, "lon": 111.76711461033186, "alt_km": 719.8268316270605, "timestamp": "2025-12-10T20:49:52.948991+00:00", "meta": {"OBJECT_NAME": "COSMOS 2251 DEB", "OBJECT_ID": "1993-036APB", "EPOCH": "2025-12-10T03:25:35.080032", "MEAN_MOTION": 14.49912866, "ECCENTRICITY": 0.00186346, "INCLINATION": 74.0397, "RA_OF_ASC_NODE": 138.1054, "ARG_OF_PERICENTER": 287.2761, "MEAN_ANOMALY": 189.4863, "EPHEMERIS_TYPE": 0, "CLASSIFICATION_TYPE": "U", "NORAD_CAT_ID": 35660, "ELEMENT_SET_NO": 999, "REV_AT_EPOCH": 65833, "BSTAR": 0.00068790313, "MEAN_MOTION_DOT": 2.638e-05, "MEAN_MOTION_DDOT": 0}, "tle": {"line1": "1 35660U 93036APB 25344.14276713  .00002638  00000+0  68790-3 0  9991", "line2": "2 35660  74.0397 138.1054 0018634 287.2761 189.4863 14.49912866658333"}}, "geometry": {"type": "Point", "coordinates": [111.76711461033186, -55.87307691598895]}}, {"type": "Feature", "properties": {"norad_id": 35661, "name": "COSMOS 2251 DEB", "group": "cosmos-2251-debris", "lat": 47.694724898209955, "lon": 101.82286638308756, "alt_km": 649.7199547477185, "timestamp": "2025-12-10T20:49:52.949001+00:00", "meta": {"OBJECT_NAME": "COSMOS 2251 DEB", "OBJECT_ID": "1993-036APC", "EPOCH": "2025-12-09T17:08:36.134304", "MEAN_MOTION": 14.86479367, "ECCENTRICITY": 0.00883269, "INCLINATION": 74.0134, "RA_OF_ASC_NODE": 85.7599, "ARG_OF_PERICENTER": 190.7537, "MEAN_ANOMALY": 169.1759, "EPHEMERIS_TYPE": 0, "CLASSIFICATION_TYPE": "U", "NORAD_CAT_ID": 35661, "ELEMENT_SET_NO": 999, "REV_AT_EPOCH": 87823, "BSTAR": 0.0014984263, "MEAN_MOTION_DOT": 0.00014219, "MEAN_MOTION_DDOT": 0}, "tle": {"line1": "1 35661U 93036APC 25343.71430711  .00014219  00000+0  14984-2 0  9997", "line2": "2 35661  74.0134  85.7599 0088326 190.7537 169.1759 14.86479367878235"}}, "geometry": {"type": "Point", "coordinates": [101.82286638308756, 47.694724898209955]}}, {"type": "Feature", "properties": {"norad_id": 35663, "name": "COSMOS 2251 DEB", "group": "cosmos-2251-debris", "lat": 68.58014241297867, "lon": 175.2174947228546, "alt_km": 671.1418881212448, "timestamp": "2025-12-10T20:49:52.949011+00:00", "meta": {"OBJECT_NAME": "COSMOS 2251 DEB", "OBJECT_ID": "1993-036APE", "EPOCH": "2025-11-30T11:26:45.384288", "MEAN_MOTION": 14.65332391, "ECCENTRICITY": 0.00074535, "INCLINATION": 74.0171, "RA_OF_ASC_NODE": 148.2949, "ARG_OF_PERICENTER": 219.2944, "MEAN_ANOMALY": 140.7685, "EPHEMERIS_TYPE": 0, "CLASSIFICATION_TYPE": "U", "NORAD_CAT_ID": 35663, "ELEMENT_SET_NO": 999, "REV_AT_EPOCH": 73202, "BSTAR": 0.0015821861, "MEAN_MOTION_DOT": 8.525e-05, "MEAN_MOTION_DDOT": 0}, "tle": {"line1": "1 35663U 93036APE 25334.47691417  .00008525  00000+0  15822-2 0  9999", "line2": "2 35663  74.0171 148.2949 0007453 219.2944 140.7685 14.65332391732024"}}, "geometry": {"type": "Point", "coordinates": [175.2174947228546, 68.58014241297867]}}, {"type": "Feature", "properties": {"norad_id": 35667, "name": "COSMOS 2251 DEB", "group": "cosmos-2251-debris", "lat": 15.700973007068304, "lon": -40.9344137327678, "alt_km": 682.9245897234623, "timestamp": "2025-12-10T20:49:52.949020+00:00", "meta": {"OBJECT_NAME": "COSMOS 2251 DEB", "OBJECT_ID": "1993-036APJ", "EPOCH": "2025-12-09T17:46:15.756096", "MEAN_MOTION": 14.59967906, "ECCENTRICITY": 0.00199761, "INCLINATION": 74.0551, "RA_OF_ASC_NODE": 145.8232, "ARG_OF_PERICENTER": 206.9301, "MEAN_ANOMALY": 153.083, "EPHEMERIS_TYPE": 0, "CLASSIFICATION_TYPE": "U", "NORAD_CAT_ID": 35667, "ELEMENT_SET_NO": 999, "REV_AT_EPOCH": 70759, "BSTAR": 0.0017390315, "MEAN_MOTION_DOT": 8.344e-05, "MEAN_MOTION_DDOT": 0}, "tle": {"line1": "1 35667U 93036APJ 25343.74046014  .00008344  00000+0  17390-2 0  9991", "line2": "2 35667  74.0551 145.8232 0019976 206.9301 153.0830 14.59967906707593"}}, "geometry": {"type": "Point", "coordinates": [-40.9344137327678, 15.700973007068304]}}, {"type": "Feature", "properties": {"norad_id": 35668, "name": "COSMOS 2251 DEB", "group": "cosmos-2251-debris", "lat": -64.64871802060857, "lon": 81.25856202275682, "alt_km": 676.1992830009576, "timestamp": "2025-12-10T20:49:52.949030+00:00", "meta": {"OBJECT_NAME": "COSMOS 2251 DEB", "OBJECT_ID": "1993-036APK", "EPOCH": "2025-12-10T09:50:46.743936", "MEAN_MOTION": 14.63977041, "ECCENTRICITY": 0.00831886, "INCLINATION": 74.0449, "RA_OF_ASC_NODE": 224.9926, "ARG_OF_PERICENTER": 330.6481, "MEAN_ANOMALY": 29.0026, "EPHEMERIS_TYPE": 0, "CLASSIFICATION_TYPE": "U", "NORAD_CAT_ID": 35668, "ELEMENT_SET_NO": 999, "REV_AT_EPOCH": 87613, "BSTAR": 0.00039699898, "MEAN_MOTION_DOT": 2.154e-05, "MEAN_MOTION_DDOT": 0}, "tle": {"line1": "1 35668U 93036APK 25344.41026324  .00002154  00000+0  39700-3 0  9992", "line2": "2 35668  74.0449 224.9926 0083188 330.6481  29.0026 14.63977041876131"}}, "geometry": {"type": "Point", "coordinates": [81.25856202275682, -64.64871802060857]}}, {"type": "Feature", "properties": {"norad_id": 35669, "name": "COSMOS 2251 DEB", "group": "cosmos-2251-debris", "lat": -43.23984761121366, "lon": -1.7909703306600882, "alt_km": 858.8008698690683, "timestamp": "2025-12-10T20:49:52.949040+00:00", "meta": {"OBJECT_NAME": "COSMOS 2251 DEB", "OBJECT_ID": "1993-036APL", "EPOCH": "2025-12-03T21:23:42.149184", "MEAN_MOTION": 13.57134195, "ECCENTRICITY": 0.0387239, "INCLINATION": 73.852, "RA_OF_ASC_NODE": 173.7821, "ARG_OF_PERICENTER": 287.3475, "MEAN_ANOMALY": 68.5633, "EPHEMERIS_TYPE": 0, "CLASSIFICATION_TYPE": "U", "NORAD_CAT_ID": 35669, "ELEMENT_SET_NO": 999, "REV_AT_EPOCH": 60669, "BSTAR": 0.0017031, "MEAN_MOTION_DOT": 1.95e-05, "MEAN_MOTION_DDOT": 0}, "tle": {"line1": "1 35669U 93036APL 25337.89146006  .00001950  00000+0  17031-2 0  9992", "line2": "2 35669  73.8520 173.7821 0387239 287.3475  68.5633 13.57134195606690"}}, "geometry": {"type": "Point", "coordinates": [-1.7909703306600882, -43.23984761121366]}}, {"type": "Feature", "properties": {"norad_id": 35670, "name": "COSMOS 2251 DEB", "group": "cosmos-2251-debris", "lat": -22.434021282150997, "lon": 61.440617854895876, "alt_km": 575.316395963915, "timestamp": "2025-12-10T20:49:52.949050+00:00", "meta": {"OBJECT_NAME": "COSMOS 2251 DEB", "OBJECT_ID": "1993-036APM", "EPOCH": "2025-12-08T12:40:44.894496", "MEAN_MOTION": 14.93746131, "ECCENTRICITY": 0.00374415, "INCLINATION": 73.8955, "RA_OF_ASC_NODE": 73.039, "ARG_OF_PERICENTER": 35.0218, "MEAN_ANOMALY": 325.3416, "EPHEMERIS_TYPE": 0, "CLASSIFICATION_TYPE": "U", "NORAD_CAT_ID": 35670, "ELEMENT_SET_NO": 999, "REV_AT_EPOCH": 87664, "BSTAR": 0.0018203888, "MEAN_MOTION_DOT": 0.00019569, "MEAN_MOTION_DDOT": 0}, "tle": {"line1": "1 35670U 93036APM 25342.52829739  .00019569  00000+0  18204-2 0  9999", "line2": "2 35670  73.8955  73.0390 0037441  35.0218 325.3416 14.93746131876644"}}, "geometry": {"type": "Point", "coordinates": [61.440617854895876, -22.434021282150997]}}, {"type": "Feature", "properties": {"norad_id": 35671, "name": "COSMOS 2251 DEB", "group": "cosmos-2251-debris", "lat": 2.695876469369434, "lon": 83.59829546067007, "alt_km": 741.2607101454896, "timestamp": "2025-12-10T20:49:52.949060+00:00", "meta": {"OBJECT_NAME": "COSMOS 2251 DEB", "OBJECT_ID": "1993-036APN", "EPOCH": "2025-12-09T13:24:21.306816", "MEAN_MOTION": 14.48340433, "ECCENTRICITY": 0.004149, "INCLINATION": 74.0178, "RA_OF_ASC_NODE": 85.2791, "ARG_OF_PERICENTER": 259.861, "MEAN_ANOMALY": 118.1508, "EPHEMERIS_TYPE": 0, "CLASSIFICATION_TYPE": "U", "NORAD_CAT_ID": 35671, "ELEMENT_SET_NO": 999, "REV_AT_EPOCH": 86717, "BSTAR": 0.00041701, "MEAN_MOTION_DOT": 1.548e-05, "MEAN_MOTION_DDOT": 0}, "tle": {"line1": "1 35671U 93036APN 25343.55857994  .00001548  00000+0  41701-3 0  9995", "line2": "2 35671  74.0178  85.2791 0041490 259.8610 118.1508 14.48340433867179"}}, "geometry": {"type": "Point", "coordinates": [83.59829546067007, 2.695876469369434]}}, {"type": "Feature", "properties": {"norad_id": 35674, "name": "COSMOS 2251 DEB", "group": "cosmos-2251-debris", "lat": -18.061824887463846, "lon": 145.3918857473388, "alt_km": 782.9648544224965, "timestamp": "2025-12-10T20:49:52.949070+00:00", "meta": {"OBJECT_NAME": "COSMOS 2251 DEB", "OBJECT_ID": "1993-036APR", "EPOCH": "2025-12-10T14:57:59.522112", "MEAN_MOTION": 14.54148756, "ECCENTRICITY": 0.00960447, "INCLINATION": 74.0605, "RA_OF_ASC_NODE": 320.5053, "ARG_OF_PERICENTER": 5.7735, "MEAN_ANOMALY": 354.451, "EPHEMERIS_TYPE": 0, "CLASSIFICATION_TYPE": "U", "NORAD_CAT_ID": 35674, "ELEMENT_SET_NO": 999, "REV_AT_EPOCH": 86080, "BSTAR": 0.003234414, "MEAN_MOTION_DOT": 0.00014545, "MEAN_MOTION_DDOT": 0}, "tle": {"line1": "1 35674U 93036APR 25344.62360558  .00014545  00000+0  32344-2 0  9995", "line2": "2 35674  74.0605 320.5053 0096044   5.7735 354.4510 14.54148756860806"}}, "geometry": {"type": "Point", "coordinates": [145.3918857473388, -18.061824887463846]}}]}